IRIDIUM 57              
1 25273U 98019B   24356.66565536  .00000629  00000+0  21125-3 0  9998
2 25273  86.3973 219.5687 0001957  84.2779 275.8640 14.35644728399315
IRIDIUM 63              
1 25286U 98021B   24357.44905627  .00000964  00000+0  32350-3 0  9995
2 25286  86.4001 156.2325 0002138  93.5505 266.5937 14.36260194398744
IRIDIUM 69              
1 25319U 98026A   24356.88867029  .00000896  00000+0  27496-3 0  9996
2 25319  86.3999 170.2739 0000853 193.6381 166.4796 14.40600036397532
IRIDIUM 71              
1 25320U 98026B   24356.99066412  .00001015  00000+0  31075-3 0  9999
2 25320  86.3994 164.9599 0001483  16.1195 344.0051 14.40840613398328
IRIDIUM 73              
1 25344U 98032C   24357.37516078  .00001515  00000+0  37624-3 0  9994
2 25344  86.4424 121.9097 0001569 107.7986 252.3391 14.51260034405219
IRIDIUM 82              
1 25467U 98051A   24356.59879101  .00023889  00000+0  93785-3 0  9991
2 25467  86.3734 196.2050 0103932 246.1208 112.9119 15.20621652396867
